TRANSPORTER-10 OBJECT AG
1 59128U 24043AG  26068.92552531  .00009498  00000+0  32170-3 0  9997
2 59128  97.5471 205.7101 0009300 226.5958 133.4509 15.30759727111920
STARLINK-31594          
1 59332U 24057N   26068.39651260 -.00006890  00000+0 -24084-3 0  9999
2 59332  43.0042 200.0261 0003285 297.6612  62.3906 15.27601530109667
